[{"OBJECT_NAME":"SORAYA","OBJECT_ID":"2024-015A","EPOCH":"2026-03-09T23:47:27.347136","MEAN_MOTION":14.4267567,"ECCENTRICITY":0.00145543,"INCLINATION":64.5174,"RA_OF_ASC_NODE":9.0228,"ARG_OF_PERICENTER":231.7358,"MEAN_ANOMALY":128.2419,"EPHEMERIS_TYPE":0,"CLASSIFICATION_TYPE":"U","NORAD_CAT_ID":58817,"ELEMENT_SET_NO":999,"REV_AT_EPOCH":11246,"BSTAR":9.0214372e-5,"MEAN_MOTION_DOT":1.94e-6,"MEAN_MOTION_DDOT":0},{"OBJECT_NAME":"CZ-6A DEB","OBJECT_ID":"2022-151DQ","EPOCH":"2026-03-09T23:33:45.970848","MEAN_MOTION":14.37347089,"ECCENTRICITY":0.00890432,"INCLINATION":98.5966,"RA_OF_ASC_NODE":90.9895,"ARG_OF_PERICENTER":319.9367,"MEAN_ANOMALY":39.5274,"EPHEMERIS_TYPE":0,"CLASSIFICATION_TYPE":"U","NORAD_CAT_ID":54392,"ELEMENT_SET_NO":999,"REV_AT_EPOCH":17374,"BSTAR":0.00063754979,"MEAN_MOTION_DOT":1.946e-5,"MEAN_MOTION_DDOT":0}]
